NORAD_CAT_ID,OBJECT_NAME,OBJECT_TYPE,EPOCH,MEAN_MOTION,ECCENTRICITY,INCLINATION,RA_OF_ASC_NODE,ARG_OF_PERICENTER,MEAN_ANOMALY,BSTAR,MEAN_MOTION_DOT,MEAN_MOTION_DDOT,TLE_LINE0,TLE_LINE1,TLE_LINE2,SEMIMAJOR_AXIS,PERIOD,APOGEE,PERIGEE,DECAYED
55305.0,STARLINK-5316,PAYLOAD,2023-06-26 16:57:46,14.99297481,0.0003162,69.9993,353.191,268.6216,91.4581,8.8556e-06,1.4e-07,0.0,0 STARLINK-5316,1 55305U 23010AN  23177.70678631  .00000014  00000-0  88556-5 0  9994,2 55305  69.9993 353.1910 0003162 268.6216  91.4581 14.99297481 25111,6947.203,96.045,571.264,566.871,0.0
55305.0,STARLINK-5316,PAYLOAD,2023-06-27 20:10:59,14.99304902,0.000325,69.9995,350.3273,269.5482,90.5306,2.1773e-05,1.73e-06,0.0,0 STARLINK-5316,1 55305U 23010AN  23178.84096654  .00000173  00000-0  21773-4 0  9992,2 55305  69.9995 350.3273 0003250 269.5482  90.5306 14.99304902 25287,6947.18,96.045,571.303,566.787,0.0
55305.0,STARLINK-5316,PAYLOAD,2023-06-28 16:59:56,14.99298809,0.0003182,69.9997,348.1371,270.7579,89.3216,-1.1162e-06,-1.08e-06,0.0,0 STARLINK-5316,1 55305U 23010AN  23179.70828870 -.00000108  00000-0 -11162-5 0  9993,2 55305  69.9997 348.1371 0003182 270.7579  89.3216 14.99298809 25417,6947.199,96.045,571.274,566.853,0.0
55305.0,STARLINK-5316,PAYLOAD,2023-06-29 18:37:05,14.99302616,0.0003141,69.9998,345.4419,267.7969,92.283,-2.1879e-05,-3.62e-06,0.0,0 STARLINK-5316,1 55305U 23010AN  23180.77575477 -.00000362  00000-0 -21879-4 0  9991,2 55305  69.9998 345.4419 0003141 267.7969  92.2830 14.99302616 25579,6947.187,96.045,571.234,566.87,0.0
55305.0,STARLINK-5316,PAYLOAD,2023-06-30 17:02:39,14.98908449,0.000268,70.0002,343.0848,254.0075,106.079,-0.0040585,-0.00048908,0.0,0 STARLINK-5316,1 55305U 23010AN  23181.71017987 -.00048908  00000-0 -40585-2 0  9994,2 55305  70.0002 343.0848 0002680 254.0075 106.0790 14.98908449 25712,6948.405,96.07,572.132,568.407,0.0
55305.0,STARLINK-5316,PAYLOAD,2023-06-30 20:15:00,14.98779986,0.0003535,69.9996,342.7477,270.5805,89.4949,-0.0053287,-0.00063841,0.0,0 STARLINK-5316,1 55305U 23010AN  23181.84376088 -.00063841  00000-0 -53287-2 0  9994,2 55305  69.9996 342.7477 0003535 270.5805  89.4949 14.98779986 25733,6948.802,96.078,573.123,568.21,0.0
55305.0,STARLINK-5316,PAYLOAD,2023-07-01 09:03:53,14.9871748,0.0003786,69.9996,341.4009,269.8559,90.2167,-0.0052622,-0.00062953,0.0,0 STARLINK-5316,1 55305U 23010AN  23182.37770722 -.00062953  00000-0 -52622-2 0  9991,2 55305  69.9996 341.4009 0003786 269.8559  90.2167 14.98717480 25817,6948.995,96.082,573.491,568.229,0.0
55305.0,STARLINK-5316,PAYLOAD,2023-07-02 10:41:46,14.98522511,0.0003631,69.9996,338.7071,267.7673,92.307,-0.0030651,-0.00036659,0.0,0 STARLINK-5316,1 55305U 23010AN  23183.44568046 -.00036659  00000-0 -30651-2 0  9996,2 55305  69.9996 338.7071 0003631 267.7673  92.3070 14.98522511 25970,6949.598,96.095,573.986,568.939,0.0
55305.0,STARLINK-5316,PAYLOAD,2023-07-02 13:54:02,14.98496341,0.0004189,69.9996,338.3706,274.2824,85.7856,-0.0026692,-0.00031937,0.0,0 STARLINK-5316,1 55305U 23010AN  23183.57919008 -.00031937  00000-0 -26692-2 0  9992,2 55305  69.9996 338.3706 0004189 274.2824  85.7856 14.98496341 25992,6949.679,96.096,574.455,568.632,0.0
55305.0,STARLINK-5316,PAYLOAD,2023-07-04 00:00:00,14.98339432,0.0003765,70.0011,334.7865,273.7023,188.066,-0.003266,-0.00038859,0.0,0 STARLINK-5316,1 55305U 23010AN  23185.00001157 -.00038859  00000-0 -32660-2 0  9991,2 55305  70.0011 334.7865 0003765 273.7023 188.0660 14.98339432 26216,6950.164,96.106,574.645,569.412,0.0
55305.0,STARLINK-5316,PAYLOAD,2023-07-04 15:34:12,14.98327918,0.0003701,69.9995,333.1519,271.8813,88.1922,-2.7803e-05,-4.25e-06,0.0,0 STARLINK-5316,1 55305U 23010AN  23185.64875763 -.00000425  00000-0 -27803-4 0  9996,2 55305  69.9995 333.1519 0003701 271.8813  88.1922 14.98327918 26306,6950.199,96.107,574.637,569.492,0.0
55305.0,STARLINK-5316,PAYLOAD,2023-07-05 18:48:29,14.98331361,0.0003732,69.9996,330.2906,269.459,90.6141,-5.0774e-05,-6.99e-06,0.0,0 STARLINK-5316,1 55305U 23010AN  23186.78367553 -.00000699  00000-0 -50774-4 0  9991,2 55305  69.9996 330.2906 0003732 269.4590  90.6141 14.98331361 26470,6950.189,96.107,574.647,569.46,0.0
55305.0,STARLINK-5316,PAYLOAD,2023-07-07 02:51:10,14.98327787,0.0003625,70.0,326.9237,269.2834,90.791,1.638e-05,1.02e-06,0.0,0 STARLINK-5316,1 55305U 23010AN  23188.11887713  .00000102  00000-0  16380-4 0  9997,2 55305  70.0000 326.9237 0003625 269.2834  90.7910 14.98327787 26672,6950.2,96.107,574.584,569.545,0.0
55305.0,STARLINK-5316,PAYLOAD,2023-07-08 09:17:43,14.98330656,0.0003644,69.9997,323.7237,267.9765,92.0977,2.9764e-05,2.62e-06,0.0,0 STARLINK-5316,1 55305U 23010AN  23189.38731392  .00000262  00000-0  29764-4 0  9995,2 55305  69.9997 323.7237 0003644 267.9765  92.0977 14.98330656 26866,6950.191,96.107,574.589,569.523,0.0
55305.0,STARLINK-5316,PAYLOAD,2023-07-09 12:32:01,14.98325802,0.0003746,69.9999,320.8634,268.8056,91.2674,-3.5444e-05,-5.16e-06,0.0,0 STARLINK-5316,1 55305U 23010AN  23190.52223888 -.00000516  00000-0 -35444-4 0  9995,2 55305  69.9999 320.8634 0003746 268.8056  91.2674 14.98325802 27035,6950.206,96.107,574.674,569.467,0.0
55305.0,STARLINK-5316,PAYLOAD,2023-07-10 09:21:45,14.98331429,0.0003672,70.0,318.6751,270.1588,89.915,2.7449e-05,2.34e-06,0.0,0 STARLINK-5316,1 55305U 23010AN  23191.39011319  .00000234  00000-0  27449-4 0  9996,2 55305  70.0000 318.6751 0003672 270.1588  89.9150 14.98331429 27169,6950.188,96.107,574.606,569.501,0.0
55305.0,STARLINK-5316,PAYLOAD,2023-07-11 01:23:06,14.98345708,0.0003741,70.0002,316.9913,272.5975,87.4756,-0.00024173,-2.978e-05,0.0,0 STARLINK-5316,1 55305U 23010AN  23192.05770859 -.00002978  00000-0 -24173-3 0  9990,2 55305  70.0002 316.9913 0003741 272.5975  87.4756 14.98345708 27266,6950.144,96.106,574.609,569.409,0.0
55305.0,STARLINK-5316,PAYLOAD,2023-07-11 07:47:38,14.98328289,0.000355,70.0002,316.3182,269.3071,90.7681,2.7681e-05,2.37e-06,0.0,0 STARLINK-5316,1 55305U 23010AN  23192.32475388  .00000237  00000-0  27681-4 0  9991,2 55305  70.0002 316.3182 0003550 269.3071  90.7681 14.98328289 27301,6950.198,96.107,574.531,569.596,0.0
55305.0,STARLINK-5316,PAYLOAD,2023-07-12 17:26:28,14.98330789,0.0003553,70.0001,312.7843,267.4693,92.606,-4.0694e-05,-5.79e-06,0.0,0 STARLINK-5316,1 55305U 23010AN  23193.72671331 -.00000579  00000-0 -40694-4 0  9992,2 55305  70.0001 312.7843 0003553 267.4693  92.6060 14.98330789 27519,6950.19,96.107,574.525,569.586,0.0
55305.0,STARLINK-5316,PAYLOAD,2023-07-13 17:28:29,14.98327592,0.0003574,69.9999,310.2585,265.5312,94.5439,-2.473e-07,-9.6e-07,0.0,0 STARLINK-5316,1 55305U 23010AN  23194.72811383 -.00000096  00000-0 -24730-6 0  9995,2 55305  69.9999 310.2585 0003574 265.5312  94.5439 14.98327592 27663,6950.2,96.107,574.549,569.581,0.0
55305.0,STARLINK-5316,PAYLOAD,2023-07-14 17:30:29,14.98334605,0.0003707,69.9998,307.7343,271.1515,88.922,8.0662e-05,8.7e-06,0.0,0 STARLINK-5316,1 55305U 23010AN  23195.72950708  .00000870  00000-0  80662-4 0  9993,2 55305  69.9998 307.7343 0003707 271.1515  88.9220 14.98334605 27816,6950.179,96.107,574.62,569.467,0.0
55305.0,STARLINK-5316,PAYLOAD,2023-07-15 11:07:58,14.98325548,0.0003521,70.0002,305.882,270.2322,89.8434,-1.1897e-05,-2.35e-06,0.0,0 STARLINK-5316,1 55305U 23010AN  23196.46387587 -.00000235  00000-0 -11897-4 0  9995,2 55305  70.0002 305.8820 0003521 270.2322  89.8434 14.98325548 27929,6950.207,96.107,574.519,569.624,0.0
55305.0,STARLINK-5316,PAYLOAD,2023-07-16 15:58:23,14.9833304,0.0003706,69.9996,302.8523,271.3908,88.6826,-8.8117e-06,-1.98e-06,0.0,0 STARLINK-5316,1 55305U 23010AN  23197.66555174 -.00000198  00000-0 -88117-5 0  9995,2 55305  69.9996 302.8523 0003706 271.3908  88.6826 14.98333040 28101,6950.183,96.107,574.624,569.473,0.0
55305.0,STARLINK-5316,PAYLOAD,2023-07-17 16:00:24,14.98334883,0.0003732,69.9994,300.3274,269.8617,90.2114,7.8972e-05,8.49e-06,0.0,0 STARLINK-5316,1 55305U 23010AN  23198.66694689  .00000849  00000-0  78972-4 0  9999,2 55305  69.9994 300.3274 0003732 269.8617  90.2114 14.98334883 28254,6950.178,96.107,574.637,569.449,0.0
55305.0,STARLINK-5316,PAYLOAD,2023-07-18 11:14:01,14.98326858,0.0003707,69.9993,298.3077,269.728,90.3454,2.6009e-07,-9e-07,0.0,0 STARLINK-5316,1 55305U 23010AN  23199.46807354 -.00000090  00000-0  26009-6 0  9998,2 55305  69.9993 298.3077 0003707 269.7280  90.3454 14.98326858 28371,6950.203,96.107,574.644,569.491,0.0
55305.0,STARLINK-5316,PAYLOAD,2023-07-19 16:04:27,14.98322216,0.0003422,70.0007,295.2784,263.6816,96.3953,-0.00012293,-1.559e-05,0.0,0 STARLINK-5316,1 55305U 23010AN  23200.66976220 -.00001559  00000-0 -12293-3 0  9991,2 55305  70.0007 295.2784 0003422 263.6816  96.3953 14.98322216 28557,6950.217,96.107,574.46,569.704,0.0
55305.0,STARLINK-5316,PAYLOAD,2023-07-20 16:06:27,14.98337155,0.0003776,69.9994,292.7531,267.986,92.0867,7.6661e-05,8.22e-06,0.0,0 STARLINK-5316,1 55305U 23010AN  23201.67114681  .00000822  00000-0  76661-4 0  9998,2 55305  69.9994 292.7531 0003776 267.9860  92.0867 14.98337155 28701,6950.171,96.107,574.66,569.411,0.0
55305.0,STARLINK-5316,PAYLOAD,2023-07-21 08:07:47,14.98330731,0.0003707,69.9997,291.0696,267.5178,92.5556,0.00011693,1.302e-05,0.0,0 STARLINK-5316,1 55305U 23010AN  23202.33874865  .00001302  00000-0  11693-3 0  9996,2 55305  69.9997 291.0696 0003707 267.5178  92.5556 14.98330731 28804,6950.191,96.107,574.632,569.479,0.0
55305.0,STARLINK-5316,PAYLOAD,2023-07-24 13:02:14,14.98329712,0.0003796,69.9987,282.9894,269.4692,90.6032,4.5983e-05,4.56e-06,0.0,0 STARLINK-5316,1 55305U 23010AN  23205.54322699  .00000456  00000-0  45983-4 0  9994,2 55305  69.9987 282.9894 0003796 269.4692  90.6032 14.98329712 29606,6950.194,96.107,574.697,569.42,0.0
55305.0,STARLINK-5316,PAYLOAD,2023-07-25 13:04:15,14.98328485,0.0003867,69.9987,280.4647,269.9184,90.1532,1.2895e-05,6.1e-07,0.0,0 STARLINK-5316,1 55305U 23010AN  23206.54462936  .00000061  00000-0  12895-4 0  9992,2 55305  69.9987 280.4647 0003867 269.9184  90.1532 14.98328485 29757,6950.198,96.107,574.75,569.375,0.0
